CUBEBEL 2 (EU11S)       
1 57175U 23091K   25012.57558582  .00010995  00000+0  59251-3 0  9993
2 57175  97.5832  69.2540 0014294 131.7098 228.5359 15.14882613 85114
